CCSDS_OMM_VERS = 2.0
CREATION_DATE  = 
ORIGINATOR     = 

OBJECT_NAME    = SL-16 R/B
OBJECT_ID      = 1998-043G
CENTER_NAME    = EARTH
REF_FRAME      = TEME
TIME_SYSTEM    = UTC
MEAN_ELEMENT_THEORY = SGP/SGP4

EPOCH          = 2025-12-18T06:30:33.488352
MEAN_MOTION    = 14.26026933
ECCENTRICITY   = .00088179
INCLINATION    = 98.8133
RA_OF_ASC_NODE = 300.1204
ARG_OF_PERICENTER = 248.7501
MEAN_ANOMALY   = 111.2737

EPHEMERIS_TYPE = 0
CLASSIFICATION_TYPE = U
NORAD_CAT_ID   = 25400
ELEMENT_SET_NO = 999
REV_AT_EPOCH   = 42738
BSTAR          = .35905585E-4
MEAN_MOTION_DOT = .4E-6
MEAN_MOTION_DDOT = 0

CCSDS_OMM_VERS = 2.0
CREATION_DATE  = 
ORIGINATOR     = 

OBJECT_NAME    = SL-16 R/B
OBJECT_ID      = 1998-045B
CENTER_NAME    = EARTH
REF_FRAME      = TEME
TIME_SYSTEM    = UTC
MEAN_ELEMENT_THEORY = SGP/SGP4

EPOCH          = 2025-12-18T06:34:46.969536
MEAN_MOTION    = 14.16174627
ECCENTRICITY   = .00066297
INCLINATION    = 71.0114
RA_OF_ASC_NODE = 352.7877
ARG_OF_PERICENTER = 167.9800
MEAN_ANOMALY   = 192.1482

EPHEMERIS_TYPE = 0
CLASSIFICATION_TYPE = U
NORAD_CAT_ID   = 25407
ELEMENT_SET_NO = 999
REV_AT_EPOCH   = 41557
BSTAR          = .404057E-4
MEAN_MOTION_DOT = .32E-6
MEAN_MOTION_DDOT = 0

CCSDS_OMM_VERS = 2.0
CREATION_DATE  = 
ORIGINATOR     = 

OBJECT_NAME    = ISS (ZARYA)
OBJECT_ID      = 1998-067A
CENTER_NAME    = EARTH
REF_FRAME      = TEME
TIME_SYSTEM    = UTC
MEAN_ELEMENT_THEORY = SGP/SGP4

EPOCH          = 2025-12-18T05:11:21.338880
MEAN_MOTION    = 15.49648163
ECCENTRICITY   = .00031704
INCLINATION    = 51.6313
RA_OF_ASC_NODE = 115.3593
ARG_OF_PERICENTER = 265.6107
MEAN_ANOMALY   = 94.4519

EPHEMERIS_TYPE = 0
CLASSIFICATION_TYPE = U
NORAD_CAT_ID   = 25544
ELEMENT_SET_NO = 999
REV_AT_EPOCH   = 54370
BSTAR          = .15154287E-3
MEAN_MOTION_DOT = .8098E-4
MEAN_MOTION_DDOT = 0

CCSDS_OMM_VERS = 2.0
CREATION_DATE  = 
ORIGINATOR     = 

OBJECT_NAME    = CZ-4B R/B
OBJECT_ID      = 1999-025C
CENTER_NAME    = EARTH
REF_FRAME      = TEME
TIME_SYSTEM    = UTC
MEAN_ELEMENT_THEORY = SGP/SGP4

EPOCH          = 2025-12-18T02:29:48.539328
MEAN_MOTION    = 14.18244970
ECCENTRICITY   = .00364951
INCLINATION    = 98.6762
RA_OF_ASC_NODE = 33.2640
ARG_OF_PERICENTER = 218.2546
MEAN_ANOMALY   = 167.6066

EPHEMERIS_TYPE = 0
CLASSIFICATION_TYPE = U
NORAD_CAT_ID   = 25732
ELEMENT_SET_NO = 999
REV_AT_EPOCH   = 37660
BSTAR          = .55854864E-4
MEAN_MOTION_DOT = .72E-6
MEAN_MOTION_DDOT = 0

CCSDS_OMM_VERS = 2.0
CREATION_DATE  = 
ORIGINATOR     = 

OBJECT_NAME    = OKEAN-O
OBJECT_ID      = 1999-039A
CENTER_NAME    = EARTH
REF_FRAME      = TEME
TIME_SYSTEM    = UTC
MEAN_ELEMENT_THEORY = SGP/SGP4

EPOCH          = 2025-12-18T03:07:16.865184
MEAN_MOTION    = 14.80170841
ECCENTRICITY   = .00009271
INCLINATION    = 97.9597
RA_OF_ASC_NODE = 47.7851
ARG_OF_PERICENTER = 108.3463
MEAN_ANOMALY   = 251.7850

EPHEMERIS_TYPE = 0
CLASSIFICATION_TYPE = U
NORAD_CAT_ID   = 25860
ELEMENT_SET_NO = 999
REV_AT_EPOCH   = 42232
BSTAR          = .90573652E-4
MEAN_MOTION_DOT = .636E-5
MEAN_MOTION_DDOT = 0

CCSDS_OMM_VERS = 2.0
CREATION_DATE  = 
ORIGINATOR     = 

OBJECT_NAME    = SL-16 R/B
OBJECT_ID      = 1999-039B
CENTER_NAME    = EARTH
REF_FRAME      = TEME
TIME_SYSTEM    = UTC
MEAN_ELEMENT_THEORY = SGP/SGP4

EPOCH          = 2025-12-18T02:52:45.089184
MEAN_MOTION    = 14.81594267
ECCENTRICITY   = .00153296
INCLINATION    = 98.0120
RA_OF_ASC_NODE = 46.2715
ARG_OF_PERICENTER = 157.5215
MEAN_ANOMALY   = 202.6672

EPHEMERIS_TYPE = 0
CLASSIFICATION_TYPE = U
NORAD_CAT_ID   = 25861
ELEMENT_SET_NO = 999
REV_AT_EPOCH   = 42478
BSTAR          = .7007446E-4
MEAN_MOTION_DOT = .497E-5
MEAN_MOTION_DDOT = 0

CCSDS_OMM_VERS = 2.0
CREATION_DATE  = 
ORIGINATOR     = 

OBJECT_NAME    = DELTA 2 R/B
OBJECT_ID      = 1999-041E
CENTER_NAME    = EARTH
REF_FRAME      = TEME
TIME_SYSTEM    = UTC
MEAN_ELEMENT_THEORY = SGP/SGP4

EPOCH          = 2025-12-18T03:59:01.663008
MEAN_MOTION    = 14.11415571
ECCENTRICITY   = .05045891
INCLINATION    = 51.7613
RA_OF_ASC_NODE = 266.7851
ARG_OF_PERICENTER = 107.7590
MEAN_ANOMALY   = 257.9053

EPHEMERIS_TYPE = 0
CLASSIFICATION_TYPE = U
NORAD_CAT_ID   = 25876
ELEMENT_SET_NO = 999
REV_AT_EPOCH   = 35151
BSTAR          = .17931592E-3
MEAN_MOTION_DOT = .865E-5
MEAN_MOTION_DDOT = 0

CCSDS_OMM_VERS = 2.0
CREATION_DATE  = 
ORIGINATOR     = 

OBJECT_NAME    = HELIOS 1B
OBJECT_ID      = 1999-064A
CENTER_NAME    = EARTH
REF_FRAME      = TEME
TIME_SYSTEM    = UTC
MEAN_ELEMENT_THEORY = SGP/SGP4

EPOCH          = 2025-12-18T06:04:12.710496
MEAN_MOTION    = 14.87304165
ECCENTRICITY   = .00014271
INCLINATION    = 98.1757
RA_OF_ASC_NODE = 247.0820
ARG_OF_PERICENTER = 36.5791
MEAN_ANOMALY   = 323.5521

EPHEMERIS_TYPE = 0
CLASSIFICATION_TYPE = U
NORAD_CAT_ID   = 25977
ELEMENT_SET_NO = 999
REV_AT_EPOCH   = 67315
BSTAR          = .17363012E-3
MEAN_MOTION_DOT = .1508E-4
MEAN_MOTION_DDOT = 0

CCSDS_OMM_VERS = 2.0
CREATION_DATE  = 
ORIGINATOR     = 

OBJECT_NAME    = TERRA
OBJECT_ID      = 1999-068A
CENTER_NAME    = EARTH
REF_FRAME      = TEME
TIME_SYSTEM    = UTC
MEAN_ELEMENT_THEORY = SGP/SGP4

EPOCH          = 2025-12-18T06:46:55.332768
MEAN_MOTION    = 14.60908205
ECCENTRICITY   = .00035679
INCLINATION    = 97.9742
RA_OF_ASC_NODE = 43.7635
ARG_OF_PERICENTER = 83.5726
MEAN_ANOMALY   = 340.8829

EPHEMERIS_TYPE = 0
CLASSIFICATION_TYPE = U
NORAD_CAT_ID   = 25994
ELEMENT_SET_NO = 999
REV_AT_EPOCH   = 38319
BSTAR          = .92200134E-4
MEAN_MOTION_DOT = .407E-5
MEAN_MOTION_DDOT = 0

CCSDS_OMM_VERS = 2.0
CREATION_DATE  = 
ORIGINATOR     = 

OBJECT_NAME    = SL-16 R/B
OBJECT_ID      = 2000-006B
CENTER_NAME    = EARTH
REF_FRAME      = TEME
TIME_SYSTEM    = UTC
MEAN_ELEMENT_THEORY = SGP/SGP4

EPOCH          = 2025-12-18T04:44:46.555584
MEAN_MOTION    = 14.15808971
ECCENTRICITY   = .00185795
INCLINATION    = 71.0022
RA_OF_ASC_NODE = 269.1815
ARG_OF_PERICENTER = 301.2806
MEAN_ANOMALY   = 58.6497

EPHEMERIS_TYPE = 0
CLASSIFICATION_TYPE = U
NORAD_CAT_ID   = 26070
ELEMENT_SET_NO = 999
REV_AT_EPOCH   = 33702
BSTAR          = -.88425591E-4
MEAN_MOTION_DOT = -.222E-5
MEAN_MOTION_DDOT = 0

CCSDS_OMM_VERS = 2.0
CREATION_DATE  = 
ORIGINATOR     = 

OBJECT_NAME    = TITAN 4B R/B
OBJECT_ID      = 2000-047B
CENTER_NAME    = EARTH
REF_FRAME      = TEME
TIME_SYSTEM    = UTC
MEAN_ELEMENT_THEORY = SGP/SGP4

EPOCH          = 2025-12-18T05:53:06.461088
MEAN_MOTION    = 15.08821390
ECCENTRICITY   = .003854
INCLINATION    = 67.9899
RA_OF_ASC_NODE = 269.3924
ARG_OF_PERICENTER = 137.9539
MEAN_ANOMALY   = 222.4580

EPHEMERIS_TYPE = 0
CLASSIFICATION_TYPE = U
NORAD_CAT_ID   = 26474
ELEMENT_SET_NO = 999
REV_AT_EPOCH   = 38062
BSTAR          = .18979502E-3
MEAN_MOTION_DOT = .2908E-4
MEAN_MOTION_DDOT = 0

CCSDS_OMM_VERS = 2.0
CREATION_DATE  = 
ORIGINATOR     = 

OBJECT_NAME    = ENVISAT
OBJECT_ID      = 2002-009A
CENTER_NAME    = EARTH
REF_FRAME      = TEME
TIME_SYSTEM    = UTC
MEAN_ELEMENT_THEORY = SGP/SGP4

EPOCH          = 2025-12-17T18:32:36.144384
MEAN_MOTION    = 14.39001060
ECCENTRICITY   = .00011343
INCLINATION    = 98.3606
RA_OF_ASC_NODE = 302.3857
ARG_OF_PERICENTER = 84.6854
MEAN_ANOMALY   = 335.5668

EPHEMERIS_TYPE = 0
CLASSIFICATION_TYPE = U
NORAD_CAT_ID   = 27386
ELEMENT_SET_NO = 999
REV_AT_EPOCH   = 24739
BSTAR          = .43003772E-4
MEAN_MOTION_DOT = .9E-6
MEAN_MOTION_DDOT = 0

