SL-16 R/B               
1 25400U 98043G   25352.27122093  .00000040  00000+0  35906-4 0  9998
2 25400  98.8133 300.1204 0008817 248.7501 111.2737 14.26026933427388
SL-16 R/B               
1 25407U 98045B   25352.27415474  .00000032  00000+0  40406-4 0  9997
2 25407  71.0114 352.7877 0006629 167.9800 192.1482 14.16174627415575
ISS (ZARYA)             
1 25544U 98067A   25352.21621920  .00008098  00000+0  15154-3 0  9993
2 25544  51.6313 115.3593 0003170 265.6107  94.4519 15.49648163543704
CZ-4B R/B               
1 25732U 99025C   25352.10403402  .00000072  00000+0  55855-4 0  9995
2 25732  98.6762  33.2640 0036495 218.2546 167.6066 14.18244970376606
OKEAN-O                 
1 25860U 99039A   25352.13005631  .00000636  00000+0  90574-4 0  9990
2 25860  97.9597  47.7851 0000927 108.3463 251.7850 14.80170841422329
SL-16 R/B               
1 25861U 99039B   25352.11996631  .00000497  00000+0  70074-4 0  9996
2 25861  98.0120  46.2715 0015329 157.5215 202.6672 14.81594267424782
DELTA 2 R/B             
1 25876U 99041E   25352.16599147  .00000865  00000+0  17932-3 0  9993
2 25876  51.7613 266.7851 0504589 107.7590 257.9053 14.11415571351514
HELIOS 1B               
1 25977U 99064A   25352.25292489  .00001508  00000+0  17363-3 0  9992
2 25977  98.1757 247.0820 0001427  36.5791 323.5521 14.87304165673159
TERRA                   
1 25994U 99068A   25352.28258487  .00000407  00000+0  92200-4 0  9999
2 25994  97.9742  43.7635 0003567  83.5726 340.8829 14.60908205383192
SL-16 R/B               
1 26070U 00006B   25352.19776106 -.00000222  00000+0 -88426-4 0  9994
2 26070  71.0022 269.1815 0018579 301.2806  58.6497 14.15808971337029
TITAN 4B R/B            
1 26474U 00047B   25352.24521367  .00002908  00000+0  18980-3 0  9998
2 26474  67.9899 269.3924 0038540 137.9539 222.4580 15.08821390380624
ENVISAT                 
1 27386U 02009A   25351.77264056  .00000090  00000+0  43004-4 0  9993
2 27386  98.3606 302.3857 0001134  84.6854 335.5668 14.39001060247397
